NORAD_CAT_ID,OBJECT_NAME,OBJECT_TYPE,EPOCH,MEAN_MOTION,ECCENTRICITY,INCLINATION,RA_OF_ASC_NODE,ARG_OF_PERICENTER,MEAN_ANOMALY,BSTAR,MEAN_MOTION_DOT,MEAN_MOTION_DDOT,TLE_LINE0,TLE_LINE1,TLE_LINE2,SEMIMAJOR_AXIS,PERIOD,APOGEE,PERIGEE,DECAYED
52700.0,STARLINK-4034,PAYLOAD,2022-08-12 14:00:01,15.0883146,0.0002048,53.2142,247.9582,40.752,271.6853,0.0011731,0.00018427,0.0,0 STARLINK-4034,1 52700U 22053AW  22224.58334491  .00018427  00000-0  11731-2 0  9992,2 52700  53.2142 247.9582 0002048  40.7520 271.6853 15.08831460 13655,6917.906,95.438,541.188,538.355,0.0
52700.0,STARLINK-4034,PAYLOAD,2022-08-12 22:00:01,15.08822218,0.0001872,53.2144,246.4598,49.055,275.0903,0.0022988,0.0003647,0.0,0 STARLINK-4034,1 52700U 22053AW  22224.91668981  .00036470  00000-0  22988-2 0  9997,2 52700  53.2144 246.4598 0001872  49.0550 275.0903 15.08822218  1301,6917.935,95.439,541.095,538.505,0.0
52700.0,STARLINK-4034,PAYLOAD,2022-08-13 14:00:01,15.08842544,0.0002109,53.2145,243.4684,43.9731,303.2941,0.00054104,8.334e-05,0.0,0 STARLINK-4034,1 52700U 22053AW  22225.58334491  .00008334  00000-0  54104-3 0  9991,2 52700  53.2145 243.4684 0002109  43.9731 303.2941 15.08842544  1303,6917.873000000001,95.437,541.197,538.279,0.0
52700.0,STARLINK-4034,PAYLOAD,2022-08-13 22:00:00,15.08831076,0.0001934,53.2148,241.9701,49.0615,309.815,0.0013299,0.00020936,0.0,0 STARLINK-4034,1 52700U 22053AW  22225.91667824  .00020936  00000-0  13299-2 0  9998,2 52700  53.2148 241.9701 0001934  49.0615 309.8150 15.08831076  1304,6917.908,95.438,541.111,538.435,0.0
52700.0,STARLINK-4034,PAYLOAD,2022-08-14 14:00:01,15.08829449,0.0002121,53.2151,238.9786,42.6788,339.3774,7.2091e-05,8.59e-06,0.0,0 STARLINK-4034,1 52700U 22053AW  22226.58334491  .00000859  00000-0  72091-4 0  9992,2 52700  53.2151 238.9786 0002121  42.6788 339.3774 15.08829449  1307,6917.913000000001,95.438,541.245,538.31,0.0
52700.0,STARLINK-4034,PAYLOAD,2022-08-14 22:00:00,15.0880702,0.0001955999999999,53.2155,237.4805,48.6171,345.0322,0.0030374,0.00048341,0.0,0 STARLINK-4034,1 52700U 22053AW  22226.91667824  .00048341  00000-0  30374-2 0  9992,2 52700  53.2155 237.4805 0001956  48.6171 345.0322 15.08807020  1308,6917.981,95.44,541.1990000000002,538.493,0.0
52700.0,STARLINK-4034,PAYLOAD,2022-08-15 14:00:01,15.08842518,0.0002177999999999,53.2157,234.4891,44.0489,12.7635,-0.00041366,-6.866e-05,0.0,0 STARLINK-4034,1 52700U 22053AW  22227.58334491 -.00006866  00000-0 -41366-3 0  9999,2 52700  53.2157 234.4891 0002178  44.0489  12.7635 15.08842518  1307,6917.873000000001,95.437,541.244,538.231,0.0
52700.0,STARLINK-4034,PAYLOAD,2022-08-15 16:00:00,15.08854083,0.0002126,53.2159,234.1145,46.0936,103.6149,-0.0020484,-0.00032754,0.0,0 STARLINK-4034,1 52700U 22053AW  22227.66667824 -.00032754  00000-0 -20484-2 0  9999,2 52700  53.2159 234.1145 0002126  46.0936 103.6149 15.08854083 14124,6917.837,95.437,541.173,538.232,0.0
52700.0,STARLINK-4034,PAYLOAD,2022-08-15 22:00:00,15.08817479,0.0002,53.2161,232.9911,49.9681,18.4475,0.0028379,0.00045139,0.0,0 STARLINK-4034,1 52700U 22053AW  22227.91667824  .00045139  00000-0  28379-2 0  9997,2 52700  53.2161 232.9911 0002000  49.9681  18.4475 15.08817479  1303,6917.949000000001,95.439,541.198,538.431,0.0
52700.0,STARLINK-4034,PAYLOAD,2022-08-16 06:00:02,15.08854482,0.0002171999999999,53.2162,231.4962,47.795,32.2724,-0.0015102,-0.00024253,0.0,0 STARLINK-4034,1 52700U 22053AW  22228.25002315 -.00024253  00000-0 -15102-2 0  9999,2 52700  53.2162 231.4962 0002172  47.7950  32.2724 15.08854482 14219,6917.8359999999975,95.437,541.2040000000002,538.1990000000002,0.0
52700.0,STARLINK-4034,PAYLOAD,2022-08-16 14:00:01,15.08854208,0.0002197,53.216,229.9998,45.7293,45.872,-0.00081844,-0.00013296,0.0,0 STARLINK-4034,1 52700U 22053AW  22228.58334491 -.00013296  00000-0 -81844-3 0  9990,2 52700  53.2160 229.9998 0002197  45.7293  45.8720 15.08854208  1301,6917.837,95.437,541.222,538.182,0.0
52700.0,STARLINK-4034,PAYLOAD,2022-08-16 22:00:00,15.08829627,0.0002021999999999,53.2162,228.502,51.8067,51.4079,0.0026049,0.00041401,0.0,0 STARLINK-4034,1 52700U 22053AW  22228.91667824  .00041401  00000-0  26049-2 0  9998,2 52700  53.2162 228.5020 0002022  51.8067  51.4079 15.08829627 14310,6917.9119999999975,95.438,541.1759999999998,538.378,0.0
52700.0,STARLINK-4034,PAYLOAD,2022-08-17 14:00:01,15.08870842,0.0002154999999999,53.2158,225.5106,46.878,79.5415,-0.0040513,-0.00064246,0.0,0 STARLINK-4034,1 52700U 22053AW  22229.58334491 -.00064246  00000-0 -40513-2 0  9999,2 52700  53.2158 225.5106 0002155  46.8780  79.5415 15.08870842 14411,6917.786,95.436,541.1419999999998,538.16,0.0
52700.0,STARLINK-4034,PAYLOAD,2022-08-17 16:00:00,15.08864483,0.0002066999999999,53.216,225.136,48.4615,170.8636,-0.0040856,-0.00064771,0.0,0 STARLINK-4034,1 52700U 22053AW  22229.66667824 -.00064771  00000-0 -40856-2 0  9990,2 52700  53.2160 225.1360 0002067  48.4615 170.8636 15.08864483  1307,6917.806,95.436,541.1,538.241,0.0
52700.0,STARLINK-4034,PAYLOAD,2022-08-18 08:00:01,15.08824903,0.0002179,53.2159,222.1446,48.2072,194.3071,0.0012452,0.00019577,0.0,0 STARLINK-4034,1 52700U 22053AW  22230.33334491  .00019577  00000-0  12452-2 0  9990,2 52700  53.2159 222.1446 0002179  48.2072 194.3071 15.08824903 14521,6917.927,95.439,541.299,538.284,0.0
52700.0,STARLINK-4034,PAYLOAD,2022-08-18 14:00:01,15.08852047,0.0002129,53.2154,221.0216,48.283,112.9146,-0.0013645999999999,-0.00021948,0.0,0 STARLINK-4034,1 52700U 22053AW  22230.58334491 -.00021948  00000-0 -13646-2 0  9990,2 52700  53.2154 221.0216 0002129  48.2830 112.9146 15.08852047  1307,6917.844,95.437,541.181,538.236,0.0
52700.0,STARLINK-4034,PAYLOAD,2022-08-18 22:00:00,15.08830824,0.0002013,53.2154,219.524,54.3532,118.4467,0.0021243,0.00033674,0.0,0 STARLINK-4034,1 52700U 22053AW  22230.91667824  .00033674  00000-0  21243-2 0  9995,2 52700  53.2154 219.5240 0002013  54.3532 118.4467 15.08830824  1301,6917.908,95.438,541.1659999999998,538.381,0.0
52700.0,STARLINK-4034,PAYLOAD,2022-08-19 06:00:00,15.08859928,0.0002163,53.2153,218.0294,50.0526,134.3465,-0.0025681999999999,-0.00040953,0.0,0 STARLINK-4034,1 52700U 22053AW  22231.25001157 -.00040953  00000-0 -25682-2 0  9995,2 52700  53.2153 218.0294 0002163  50.0526 134.3465 15.08859928 14669,6917.819,95.436,541.181,538.188,0.0
52700.0,STARLINK-4034,PAYLOAD,2022-08-19 14:00:01,15.0884664,0.0002083,53.215,216.5325,47.9197,148.0786,-0.0022136,-0.00035353,0.0,0 STARLINK-4034,1 52700U 22053AW  22231.58334491 -.00035353  00000-0 -22136-2 0  9990,2 52700  53.2150 216.5325 0002083  47.9197 148.0786 15.08846640  1306,6917.86,95.437,541.1659999999998,538.284,0.0
52700.0,STARLINK-4034,PAYLOAD,2022-08-19 22:00:00,15.08818359,0.0002008,53.2151,215.035,53.7163,153.8681,0.0018951,0.00029984,0.0,0 STARLINK-4034,1 52700U 22053AW  22231.91667824  .00029984  00000-0  18951-2 0  9997,2 52700  53.2151 215.0350 0002008  53.7163 153.8681 15.08818359  1308,6917.946999999999,95.439,541.201,538.422,0.0
52700.0,STARLINK-4034,PAYLOAD,2022-08-20 14:00:01,15.08855236,0.000216,53.2149,212.0433,49.0156,181.7321,-0.0018692,-0.00029927,0.0,0 STARLINK-4034,1 52700U 22053AW  22232.58334491 -.00029927  00000-0 -18692-2 0  9993,2 52700  53.2149 212.0433 0002160  49.0156 181.7321 15.08855236 14864,6917.834,95.437,541.193,538.205,0.0
52700.0,STARLINK-4034,PAYLOAD,2022-08-20 22:00:00,15.08803631,0.0002213,53.2167,210.5516,50.0467,192.2919,0.0031941,0.00050863,0.0,0 STARLINK-4034,1 52700U 22053AW  22232.91667824  .00050863  00000-0  31941-2 0  9992,2 52700  53.2167 210.5516 0002213  50.0467 192.2919 15.08803631  1302,6917.9919999999975,95.44,541.388,538.326,0.0
52700.0,STARLINK-4034,PAYLOAD,2022-08-21 06:00:00,15.08840974,0.0002307,53.2151,209.0512,49.9095,204.0374,0.00018919,2.724e-05,0.0,0 STARLINK-4034,1 52700U 22053AW  22233.25001157  .00002724  00000-0  18919-3 0  9995,2 52700  53.2151 209.0512 0002307  49.9095 204.0374 15.08840974 14966,6917.877,95.437,541.3380000000002,538.146,0.0
52700.0,STARLINK-4034,PAYLOAD,2022-08-21 14:00:01,15.08872448,0.0002193,53.2151,207.554,49.1031,216.4393,-0.0048122,-0.00076136,0.0,0 STARLINK-4034,1 52700U 22053AW  22233.58334491 -.00076136  00000-0 -48122-2 0  9999,2 52700  53.2151 207.5540 0002193  49.1031 216.4393 15.08872448  1308,6917.781,95.436,541.163,538.129,0.0
52700.0,STARLINK-4034,PAYLOAD,2022-08-21 22:00:00,15.08821203,0.0002117,53.2154,206.0566,53.7388,223.403,0.0015791,0.0002492,0.0,0 STARLINK-4034,1 52700U 22053AW  22233.91667824  .00024920  00000-0  15791-2 0  9993,2 52700  53.2154 206.0566 0002117  53.7388 223.4030 15.08821203  1304,6917.938,95.439,541.2669999999998,538.3380000000002,0.0
52700.0,STARLINK-4034,PAYLOAD,2022-08-22 06:00:00,15.08824103,0.0002326,53.2155,204.562,49.2222,239.5046,0.00063037,9.754e-05,0.0,0 STARLINK-4034,1 52700U 22053AW  22234.25001157  .00009754  00000-0  63037-3 0  9997,2 52700  53.2155 204.5620 0002326  49.2222 239.5046 15.08824103 15119,6917.929,95.439,541.403,538.185,0.0
52700.0,STARLINK-4034,PAYLOAD,2022-08-22 12:00:00,15.08844244,0.0002292,53.2153,203.4394,48.6724,158.7344,-0.00094302,-0.00015267,0.0,0 STARLINK-4034,1 52700U 22053AW  22234.50001157 -.00015267  00000-0 -94302-3 0  9992,2 52700  53.2153 203.4394 0002292  48.6724 158.7344 15.08844244  1302,6917.8669999999975,95.437,541.318,538.1469999999998,0.0
52700.0,STARLINK-4034,PAYLOAD,2022-08-22 22:00:00,15.08836223,0.0002188,53.2158,201.5675,55.1945,256.7021,0.0012533,0.00019713,0.0,0 STARLINK-4034,1 52700U 22053AW  22234.91667824  .00019713  00000-0  12533-2 0  9999,2 52700  53.2158 201.5675 0002188  55.1945 256.7021 15.08836223  1309,6917.892,95.438,541.271,538.243,0.0
52700.0,STARLINK-4034,PAYLOAD,2022-08-23 14:00:01,15.08870387,0.0002234,53.2158,198.5755,51.0011,284.0864,-0.0050049,-0.00079136,0.0,0 STARLINK-4034,1 52700U 22053AW  22235.58334491 -.00079136  00000-0 -50049-2 0  9995,2 52700  53.2158 198.5755 0002234  51.0011 284.0864 15.08870387 15318,6917.788000000001,95.436,541.198,538.107,0.0
